[{"OBJECT_NAME":"STARLINK-34291","OBJECT_ID":"2025-126R","EPOCH":"2025-07-29T22:00:01.999584","MEAN_MOTION":15.1490313,"ECCENTRICITY":0.0003108,"INCLINATION":70.0438,"RA_OF_ASC_NODE":236.2628,"ARG_OF_PERICENTER":265.6315,"MEAN_ANOMALY":303.4868,"EPHEMERIS_TYPE":0,"CLASSIFICATION_TYPE":"U","NORAD_CAT_ID":64359,"ELEMENT_SET_NO":999,"REV_AT_EPOCH":851,"BSTAR":-0.087399,"MEAN_MOTION_DOT":-0.01490352,"MEAN_MOTION_DDOT":0},{"OBJECT_NAME":"STARLINK-34458","OBJECT_ID":"2025-126S","EPOCH":"2025-07-29T22:00:01.999584","MEAN_MOTION":15.1370381,"ECCENTRICITY":0.0003331,"INCLINATION":70.046,"RA_OF_ASC_NODE":236.3434,"ARG_OF_PERICENTER":273.1247,"MEAN_ANOMALY":224.5936,"EPHEMERIS_TYPE":0,"CLASSIFICATION_TYPE":"U","NORAD_CAT_ID":64360,"ELEMENT_SET_NO":999,"REV_AT_EPOCH":851,"BSTAR":-0.089682,"MEAN_MOTION_DOT":-0.01479312,"MEAN_MOTION_DDOT":0},{"OBJECT_NAME":"STARLINK-34243","OBJECT_ID":"2025-126T","EPOCH":"2025-07-29T22:00:01.999584","MEAN_MOTION":15.1818363,"ECCENTRICITY":0.0004119,"INCLINATION":70.001,"RA_OF_ASC_NODE":236.4042,"ARG_OF_PERICENTER":287.1953,"MEAN_ANOMALY":150.2581,"EPHEMERIS_TYPE":0,"CLASSIFICATION_TYPE":"U","NORAD_CAT_ID":64361,"ELEMENT_SET_NO":999,"REV_AT_EPOCH":851,"BSTAR":-0.12782,"MEAN_MOTION_DOT":-0.02363348,"MEAN_MOTION_DDOT":0},{"OBJECT_NAME":"STARLINK-34335","OBJECT_ID":"2025-126U","EPOCH":"2025-07-29T22:00:01.999584","MEAN_MOTION":15.21041954,"ECCENTRICITY":0.0002922,"INCLINATION":69.999,"RA_OF_ASC_NODE":236.347,"ARG_OF_PERICENTER":296.0821,"MEAN_ANOMALY":192.8963,"EPHEMERIS_TYPE":0,"CLASSIFICATION_TYPE":"U","NORAD_CAT_ID":64362,"ELEMENT_SET_NO":999,"REV_AT_EPOCH":851,"BSTAR":-0.12017,"MEAN_MOTION_DOT":-0.02409524,"MEAN_MOTION_DDOT":0},{"OBJECT_NAME":"STARLINK-34408","OBJECT_ID":"2025-126V","EPOCH":"2025-07-29T22:00:01.999584","MEAN_MOTION":15.21056288,"ECCENTRICITY":0.0002263,"INCLINATION":69.999,"RA_OF_ASC_NODE":236.2964,"ARG_OF_PERICENTER":279.5894,"MEAN_ANOMALY":254.5073,"EPHEMERIS_TYPE":0,"CLASSIFICATION_TYPE":"U","NORAD_CAT_ID":64363,"ELEMENT_SET_NO":999,"REV_AT_EPOCH":851,"BSTAR":-0.12114,"MEAN_MOTION_DOT":-0.02427609,"MEAN_MOTION_DDOT":0},{"OBJECT_NAME":"STARLINK-34476","OBJECT_ID":"2025-126W","EPOCH":"2025-07-29T22:00:01.999584","MEAN_MOTION":15.184619,"ECCENTRICITY":0.0002802,"INCLINATION":69.9972,"RA_OF_ASC_NODE":236.3453,"ARG_OF_PERICENTER":292.9377,"MEAN_ANOMALY":196.2831,"EPHEMERIS_TYPE":0,"CLASSIFICATION_TYPE":"U","NORAD_CAT_ID":64364,"ELEMENT_SET_NO":999,"REV_AT_EPOCH":851,"BSTAR":-0.13012,"MEAN_MOTION_DOT":-0.02418469,"MEAN_MOTION_DDOT":0},{"OBJECT_NAME":"STARLINK-34479","OBJECT_ID":"2025-126X","EPOCH":"2025-07-29T22:00:01.999584","MEAN_MOTION":15.13139285,"ECCENTRICITY":0.0003368,"INCLINATION":70.0592,"RA_OF_ASC_NODE":236.4911,"ARG_OF_PERICENTER":275.0284,"MEAN_ANOMALY":92.4223,"EPHEMERIS_TYPE":0,"CLASSIFICATION_TYPE":"U","NORAD_CAT_ID":64365,"ELEMENT_SET_NO":999,"REV_AT_EPOCH":851,"BSTAR":-0.091359,"MEAN_MOTION_DOT":-0.01482872,"MEAN_MOTION_DDOT":0},{"OBJECT_NAME":"STARLINK-34484","OBJECT_ID":"2025-126Y","EPOCH":"2025-07-29T22:00:01.999584","MEAN_MOTION":15.19178797,"ECCENTRICITY":0.0002175,"INCLINATION":70.0007,"RA_OF_ASC_NODE":236.2458,"ARG_OF_PERICENTER":262.4461,"MEAN_ANOMALY":315.3726,"EPHEMERIS_TYPE":0,"CLASSIFICATION_TYPE":"U","NORAD_CAT_ID":64366,"ELEMENT_SET_NO":999,"REV_AT_EPOCH":851,"BSTAR":-0.12341,"MEAN_MOTION_DOT":-0.02349028,"MEAN_MOTION_DDOT":0},{"OBJECT_NAME":"STARLINK-34483","OBJECT_ID":"2025-126Z","EPOCH":"2025-07-29T22:00:01.999584","MEAN_MOTION":15.17716102,"ECCENTRICITY":0.0003054,"INCLINATION":69.998,"RA_OF_ASC_NODE":236.2413,"ARG_OF_PERICENTER":272.6467,"MEAN_ANOMALY":309.9147,"EPHEMERIS_TYPE":0,"CLASSIFICATION_TYPE":"U","NORAD_CAT_ID":64367,"ELEMENT_SET_NO":999,"REV_AT_EPOCH":851,"BSTAR":-0.13147,"MEAN_MOTION_DOT":-0.02394151,"MEAN_MOTION_DDOT":0},{"OBJECT_NAME":"STARLINK-34457","OBJECT_ID":"2025-126AA","EPOCH":"2025-07-29T22:00:01.999584","MEAN_MOTION":15.14917232,"ECCENTRICITY":0.0003612,"INCLINATION":69.9974,"RA_OF_ASC_NODE":236.4042,"ARG_OF_PERICENTER":272.0377,"MEAN_ANOMALY":166.537,"EPHEMERIS_TYPE":0,"CLASSIFICATION_TYPE":"U","NORAD_CAT_ID":64368,"ELEMENT_SET_NO":999,"REV_AT_EPOCH":851,"BSTAR":-0.11978,"MEAN_MOTION_DOT":-0.02015497,"MEAN_MOTION_DDOT":0},{"OBJECT_NAME":"STARLINK-34444","OBJECT_ID":"2025-126AB","EPOCH":"2025-07-29T22:00:01.999584","MEAN_MOTION":15.13211611,"ECCENTRICITY":0.0004301,"INCLINATION":69.9992,"RA_OF_ASC_NODE":236.4206,"ARG_OF_PERICENTER":278.215,"MEAN_ANOMALY":139.5465,"EPHEMERIS_TYPE":0,"CLASSIFICATION_TYPE":"U","NORAD_CAT_ID":64369,"ELEMENT_SET_NO":999,"REV_AT_EPOCH":851,"BSTAR":-0.17292,"MEAN_MOTION_DOT":-0.02774638,"MEAN_MOTION_DDOT":0},{"OBJECT_NAME":"STARLINK-11732 [DTC]","OBJECT_ID":"2025-127A","EPOCH":"2025-07-29T16:18:31.124160","MEAN_MOTION":15.78018808,"ECCENTRICITY":0.000169,"INCLINATION":42.9981,"RA_OF_ASC_NODE":350.1177,"ARG_OF_PERICENTER":243.7105,"MEAN_ANOMALY":116.3591,"EPHEMERIS_TYPE":0,"CLASSIFICATION_TYPE":"U","NORAD_CAT_ID":64370,"ELEMENT_SET_NO":999,"REV_AT_EPOCH":825,"BSTAR":0.0016618,"MEAN_MOTION_DOT":0.00301338,"MEAN_MOTION_DDOT":0},{"OBJECT_NAME":"STARLINK-11731 [DTC]","OBJECT_ID":"2025-127B","EPOCH":"2025-07-29T16:11:29.515488","MEAN_MOTION":15.78015736,"ECCENTRICITY":0.0002517,"INCLINATION":42.9976,"RA_OF_ASC_NODE":350.0794,"ARG_OF_PERICENTER":261.9151,"MEAN_ANOMALY":98.1434,"EPHEMERIS_TYPE":0,"CLASSIFICATION_TYPE":"U","NORAD_CAT_ID":64371,"ELEMENT_SET_NO":999,"REV_AT_EPOCH":836,"BSTAR":0.0016851,"MEAN_MOTION_DOT":0.00305694,"MEAN_MOTION_DDOT":0},{"OBJECT_NAME":"STARLINK-11746 [DTC]","OBJECT_ID":"2025-127C","EPOCH":"2025-07-29T16:04:27.862752","MEAN_MOTION":15.77941723,"ECCENTRICITY":8.86e-5,"INCLINATION":42.9974,"RA_OF_ASC_NODE":350.0415,"ARG_OF_PERICENTER":235.9745,"MEAN_ANOMALY":124.1041,"EPHEMERIS_TYPE":0,"CLASSIFICATION_TYPE":"U","NORAD_CAT_ID":64372,"ELEMENT_SET_NO":999,"REV_AT_EPOCH":825,"BSTAR":0.0015574,"MEAN_MOTION_DOT":0.00280716,"MEAN_MOTION_DDOT":0},{"OBJECT_NAME":"STARLINK-11748 [DTC]","OBJECT_ID":"2025-127D","EPOCH":"2025-07-29T02:10:03.454464","MEAN_MOTION":15.77965614,"ECCENTRICITY":0.000198,"INCLINATION":42.9975,"RA_OF_ASC_NODE":353.4346,"ARG_OF_PERICENTER":283.7829,"MEAN_ANOMALY":76.2821,"EPHEMERIS_TYPE":0,"CLASSIFICATION_TYPE":"U","NORAD_CAT_ID":64373,"ELEMENT_SET_NO":999,"REV_AT_EPOCH":832,"BSTAR":0.0016246,"MEAN_MOTION_DOT":0.00293611,"MEAN_MOTION_DDOT":0},{"OBJECT_NAME":"STARLINK-11739 [DTC]","OBJECT_ID":"2025-127E","EPOCH":"2025-07-29T20:30:53.646912","MEAN_MOTION":15.7798671,"ECCENTRICITY":0.0003315,"INCLINATION":42.999,"RA_OF_ASC_NODE":348.8483,"ARG_OF_PERICENTER":293.2501,"MEAN_ANOMALY":66.802,"EPHEMERIS_TYPE":0,"CLASSIFICATION_TYPE":"U","NORAD_CAT_ID":64374,"ELEMENT_SET_NO":999,"REV_AT_EPOCH":839,"BSTAR":0.0016662,"MEAN_MOTION_DOT":0.00301746,"MEAN_MOTION_DDOT":0}]
