STARLINK-34291          
1 64359U 25126R   25210.91668981 -.01490352  00000+0 -87399-1 0  9993
2 64359  70.0438 236.2628 0003108 265.6315 303.4868 15.14903130  8513
STARLINK-34458          
1 64360U 25126S   25210.91668981 -.01479312  00000+0 -89682-1 0  9995
2 64360  70.0460 236.3434 0003331 273.1247 224.5936 15.13703810  5880
STARLINK-34243          
1 64361U 25126T   25210.91668981 -.02363348  00000+0 -12782+0 0  9993
2 64361  70.0010 236.4042 0004119 287.1953 150.2581 15.18183630  8513
STARLINK-34335          
1 64362U 25126U   25210.91668981 -.02409524  00000+0 -12017+0 0  9992
2 64362  69.9990 236.3470 0002922 296.0821 192.8963 15.21041954  8517
STARLINK-34408          
1 64363U 25126V   25210.91668981 -.02427609  00000+0 -12114+0 0  9995
2 64363  69.9990 236.2964 0002263 279.5894 254.5073 15.21056288  8513
STARLINK-34476          
1 64364U 25126W   25210.91668981 -.02418469  00000+0 -13012+0 0  9998
2 64364  69.9972 236.3453 0002802 292.9377 196.2831 15.18461900  8513
STARLINK-34479          
1 64365U 25126X   25210.91668981 -.01482872  00000+0 -91359-1 0  9999
2 64365  70.0592 236.4911 0003368 275.0284  92.4223 15.13139285  8517
STARLINK-34484          
1 64366U 25126Y   25210.91668981 -.02349028  00000+0 -12341+0 0  9998
2 64366  70.0007 236.2458 0002175 262.4461 315.3726 15.19178797  5862
STARLINK-34483          
1 64367U 25126Z   25210.91668981 -.02394151  00000+0 -13147+0 0  9991
2 64367  69.9980 236.2413 0003054 272.6467 309.9147 15.17716102  8514
STARLINK-34457          
1 64368U 25126AA  25210.91668981 -.02015497  00000+0 -11978+0 0  9995
2 64368  69.9974 236.4042 0003612 272.0377 166.5370 15.14917232  8511
STARLINK-34444          
1 64369U 25126AB  25210.91668981 -.02774638  00000+0 -17292+0 0  9990
2 64369  69.9992 236.4206 0004301 278.2150 139.5465 15.13211611  8519
STARLINK-11732 [DTC]    
1 64370U 25127A   25210.67952690  .00301338  00000+0  16618-2 0  9992
2 64370  42.9981 350.1177 0001690 243.7105 116.3591 15.78018808  8412
STARLINK-11731 [DTC]    
1 64371U 25127B   25210.67464717  .00305694  00000+0  16851-2 0  9999
2 64371  42.9976 350.0794 0002517 261.9151  98.1434 15.78015736  8413
STARLINK-11746 [DTC]    
1 64372U 25127C   25210.66976693  .00280716  00000+0  15574-2 0  9998
2 64372  42.9974 350.0415 0000886 235.9745 124.1041 15.77941723  8416
STARLINK-11748 [DTC]    
1 64373U 25127D   25210.09031776  .00293611  00000+0  16246-2 0  9995
2 64373  42.9975 353.4346 0001980 283.7829  76.2821 15.77965614  8326
STARLINK-11739 [DTC]    
1 64374U 25127E   25210.85478758  .00301746  00000+0  16662-2 0  9996
2 64374  42.9990 348.8483 0003315 293.2501  66.8020 15.77986710  8394
